{
  "norad_id": 43182,
  "name": "LEMUR-2-JIN-LUEN",
  "history": [
    {
      "epoch": "2026-03-28T19:00:14.090400",
      "apogee_km": 300.5330119630753,
      "perigee_km": 287.3643164875939,
      "latitude_deg": 79.38889431960432,
      "longitude_deg": 14.215655999956653,
      "semi_major_axis_km": 6672.085664225334,
      "eccentricity": 0.00098685,
      "inclination_deg": 97.5392,
      "raan_deg": 20.0114,
      "arg_perigee_deg": 141.836,
      "mean_anomaly_deg": 218.3615,
      "mean_motion_rev_day": 15.92980067
    }
  ]
}